{
  "norad_id": 66385,
  "name": "STARLINK-35659",
  "history": [
    {
      "epoch": "2026-03-28T19:30:47.687616Z",
      "apogee_km": 476.2599640219105,
      "perigee_km": 474.0966465126494,
      "latitude_deg": -4.6470669876399e-06,
      "longitude_deg": 9.11198168486509,
      "height_km": 475.99619289276075,
      "semi_major_axis_km": 6853.31530526728,
      "eccentricity": 0.00015783,
      "inclination_deg": 53.1588,
      "raan_deg": 128.0388,
      "arg_perigee_deg": 85.7775,
      "mean_anomaly_deg": 274.3406,
      "mean_motion_rev_day": 15.30212313
    }
  ]
}