{"fetched_at":"2026-03-30T13:17:50Z","count":15418,"tles":[{"name":"STARLINK-35659","line1":"1 66385U 25257F   26087.81305194  .00010285  00000+0  35876-3 0  9990","line2":"2 66385  53.1588 128.0388 0001578  85.7775 274.3406 15.30212313 22663","category":"Starlink"}]}